ONEWEB-0680             
1 56716U 23068G   26037.06621726 -.00000027  00000+0 -97030-4 0  9995
2 56716  87.9197 270.1185 0002147  84.7654 275.3725 13.21824356133777
ONEWEB-0681             
1 56717U 23068H   26036.66714587  .00000120  00000+0  25834-3 0  9993
2 56717  87.9189 270.2094 0001793  48.0502 312.0785 13.21827007133715
ONEWEB-0682             
1 56718U 23068J   26037.13935226  .00000232  00000+0  58147-3 0  9999
2 56718  87.8983 285.3595 0001999  81.4923 278.6433 13.15549052132222
ONEWEB-0683             
1 56719U 23068K   26037.08469139 -.00000032  00000+0 -11940-3 0  9999
2 56719  87.8991 285.3598 0001806  82.1812 277.9524 13.15549217132188
ONEWEB-0684             
1 56720U 23068L   26037.09260878 -.00000015  00000+0 -73810-4 0  9997
2 56720  87.8993 285.3519 0000863 145.5303 214.5883 13.15548890132019
ONEWEB-0686             
1 56721U 23068M   26037.03325927 -.00000139  00000+0 -39660-3 0  9990
2 56721  87.8992 254.9124 0001675  99.1414 260.9906 13.16591656134452
ONEWEB-0694             
1 56722U 23068N   26037.11566556  .00000115  00000+0  26847-3 0  9990
2 56722  87.9013 254.8354 0001978  91.1405 268.9952 13.16594731134524
ONEWEB-0696             
1 56723U 23068P   26037.12587698  .00000194  00000+0  48212-3 0  9999
2 56723  87.8982 285.3937 0001055  85.3671 274.7580 13.15549481132139
ONEWEB-0703             
1 56724U 23068Q   26037.13539856  .00000210  00000+0  52383-3 0  9997
2 56724  87.8982 285.3729 0000766  41.8668 318.2520 13.15549255132025
ONEWEB-0721             
1 56725U 23068R   26037.24906888  .00000085  00000+0  16869-3 0  9992
2 56725  86.6812 127.3130 0001736 106.9719 253.1605 13.22459144140636
ONEWEB-0015             
1 61594U 24188A   26037.00272575  .00000282  00000+0  75953-3 0  9997
2 61594  87.8815  47.1989 0002189  75.8351 284.3020 13.11418129 67262
ONEWEB-0687             
1 61595U 24188B   26036.93713426 -.00000017  00000+0 -76662-4 0  9991
2 61595  87.9085  31.9639 0002412  85.3965 274.7442 13.17646741 68612
ONEWEB-0688             
1 61596U 24188C   26036.96583086  .00000065  00000+0  13339-3 0  9994
2 61596  87.9087  31.9580 0002678  62.1002 298.0401 13.17648429 68618
ONEWEB-0689             
1 61597U 24188D   26037.03662700 -.00000166  00000+0 -50385-3 0  9991
2 61597  87.8825  47.1279 0002138  94.0094 266.1278 13.11414801 67265
ONEWEB-0690             
1 61598U 24188E   26036.97050199 -.00000477  00000+0 -13826-2 0  9990
2 61598  87.8831  47.1616 0001142  84.7499 275.3759 13.11416661 67438
ONEWEB-0691             
1 61599U 24188F   26037.04171592 -.00000368  00000+0 -10733-2 0  9994
2 61599  87.8834  47.0460 0002113  80.9009 279.2358 13.11415889 67295
ONEWEB-0692             
1 61600U 24188G   26036.98576289 -.00000264  00000+0 -78026-3 0  9996
2 61600  87.8815  47.1959 0002090 116.7140 243.4202 13.11418094 67279
