[{"OBJECT_NAME":"ONEWEB-0680","OBJECT_ID":"2023-068G","EPOCH":"2026-02-06T01:35:21.171264","MEAN_MOTION":13.21824356,"ECCENTRICITY":0.00021479,"INCLINATION":87.9197,"RA_OF_ASC_NODE":270.1185,"ARG_OF_PERICENTER":84.7654,"MEAN_ANOMALY":275.3725,"EPHEMERIS_TYPE":0,"CLASSIFICATION_TYPE":"U","NORAD_CAT_ID":56716,"ELEMENT_SET_NO":999,"REV_AT_EPOCH":13377,"BSTAR":-9.7029733e-5,"MEAN_MOTION_DOT":-2.7e-7,"MEAN_MOTION_DDOT":0},{"OBJECT_NAME":"ONEWEB-0681","OBJECT_ID":"2023-068H","EPOCH":"2026-02-05T16:00:41.403168","MEAN_MOTION":13.21827007,"ECCENTRICITY":0.0001793,"INCLINATION":87.9189,"RA_OF_ASC_NODE":270.2094,"ARG_OF_PERICENTER":48.0502,"MEAN_ANOMALY":312.0785,"EPHEMERIS_TYPE":0,"CLASSIFICATION_TYPE":"U","NORAD_CAT_ID":56717,"ELEMENT_SET_NO":999,"REV_AT_EPOCH":13371,"BSTAR":0.00025834,"MEAN_MOTION_DOT":1.2e-6,"MEAN_MOTION_DDOT":0},{"OBJECT_NAME":"ONEWEB-0682","OBJECT_ID":"2023-068J","EPOCH":"2026-02-06T03:20:40.035264","MEAN_MOTION":13.15549052,"ECCENTRICITY":0.0001999,"INCLINATION":87.8983,"RA_OF_ASC_NODE":285.3595,"ARG_OF_PERICENTER":81.4923,"MEAN_ANOMALY":278.6433,"EPHEMERIS_TYPE":0,"CLASSIFICATION_TYPE":"U","NORAD_CAT_ID":56718,"ELEMENT_SET_NO":999,"REV_AT_EPOCH":13222,"BSTAR":0.00058147226,"MEAN_MOTION_DOT":2.32e-6,"MEAN_MOTION_DDOT":0},{"OBJECT_NAME":"ONEWEB-0683","OBJECT_ID":"2023-068K","EPOCH":"2026-02-06T02:01:57.336096","MEAN_MOTION":13.15549217,"ECCENTRICITY":0.00018063,"INCLINATION":87.8991,"RA_OF_ASC_NODE":285.3598,"ARG_OF_PERICENTER":82.1812,"MEAN_ANOMALY":277.9524,"EPHEMERIS_TYPE":0,"CLASSIFICATION_TYPE":"U","NORAD_CAT_ID":56719,"ELEMENT_SET_NO":999,"REV_AT_EPOCH":13218,"BSTAR":-0.00011940214,"MEAN_MOTION_DOT":-3.2e-7,"MEAN_MOTION_DDOT":0},{"OBJECT_NAME":"ONEWEB-0684","OBJECT_ID":"2023-068L","EPOCH":"2026-02-06T02:13:21.398592","MEAN_MOTION":13.1554889,"ECCENTRICITY":8.638e-5,"INCLINATION":87.8993,"RA_OF_ASC_NODE":285.3519,"ARG_OF_PERICENTER":145.5303,"MEAN_ANOMALY":214.5883,"EPHEMERIS_TYPE":0,"CLASSIFICATION_TYPE":"U","NORAD_CAT_ID":56720,"ELEMENT_SET_NO":999,"REV_AT_EPOCH":13201,"BSTAR":-7.3809852e-5,"MEAN_MOTION_DOT":-1.5e-7,"MEAN_MOTION_DDOT":0},{"OBJECT_NAME":"ONEWEB-0686","OBJECT_ID":"2023-068M","EPOCH":"2026-02-06T00:47:53.600928","MEAN_MOTION":13.16591656,"ECCENTRICITY":0.00016757,"INCLINATION":87.8992,"RA_OF_ASC_NODE":254.9124,"ARG_OF_PERICENTER":99.1414,"MEAN_ANOMALY":260.9906,"EPHEMERIS_TYPE":0,"CLASSIFICATION_TYPE":"U","NORAD_CAT_ID":56721,"ELEMENT_SET_NO":999,"REV_AT_EPOCH":13445,"BSTAR":-0.00039659586,"MEAN_MOTION_DOT":-1.39e-6,"MEAN_MOTION_DDOT":0},{"OBJECT_NAME":"ONEWEB-0694","OBJECT_ID":"2023-068N","EPOCH":"2026-02-06T02:46:33.504384","MEAN_MOTION":13.16594731,"ECCENTRICITY":0.00019786,"INCLINATION":87.9013,"RA_OF_ASC_NODE":254.8354,"ARG_OF_PERICENTER":91.1405,"MEAN_ANOMALY":268.9952,"EPHEMERIS_TYPE":0,"CLASSIFICATION_TYPE":"U","NORAD_CAT_ID":56722,"ELEMENT_SET_NO":999,"REV_AT_EPOCH":13452,"BSTAR":0.00026847099,"MEAN_MOTION_DOT":1.15e-6,"MEAN_MOTION_DDOT":0},{"OBJECT_NAME":"ONEWEB-0696","OBJECT_ID":"2023-068P","EPOCH":"2026-02-06T03:01:15.771072","MEAN_MOTION":13.15549481,"ECCENTRICITY":0.00010551,"INCLINATION":87.8982,"RA_OF_ASC_NODE":285.3937,"ARG_OF_PERICENTER":85.3671,"MEAN_ANOMALY":274.758,"EPHEMERIS_TYPE":0,"CLASSIFICATION_TYPE":"U","NORAD_CAT_ID":56723,"ELEMENT_SET_NO":999,"REV_AT_EPOCH":13213,"BSTAR":0.00048212433,"MEAN_MOTION_DOT":1.94e-6,"MEAN_MOTION_DDOT":0},{"OBJECT_NAME":"ONEWEB-0703","OBJECT_ID":"2023-068Q","EPOCH":"2026-02-06T03:14:58.435584","MEAN_MOTION":13.15549255,"ECCENTRICITY":7.668e-5,"INCLINATION":87.8982,"RA_OF_ASC_NODE":285.3729,"ARG_OF_PERICENTER":41.8668,"MEAN_ANOMALY":318.252,"EPHEMERIS_TYPE":0,"CLASSIFICATION_TYPE":"U","NORAD_CAT_ID":56724,"ELEMENT_SET_NO":999,"REV_AT_EPOCH":13202,"BSTAR":0.00052382712,"MEAN_MOTION_DOT":2.1e-6,"MEAN_MOTION_DDOT":0},{"OBJECT_NAME":"ONEWEB-0721","OBJECT_ID":"2023-068R","EPOCH":"2026-02-06T05:58:39.551232","MEAN_MOTION":13.22459144,"ECCENTRICITY":0.00017361,"INCLINATION":86.6812,"RA_OF_ASC_NODE":127.313,"ARG_OF_PERICENTER":106.9719,"MEAN_ANOMALY":253.1605,"EPHEMERIS_TYPE":0,"CLASSIFICATION_TYPE":"U","NORAD_CAT_ID":56725,"ELEMENT_SET_NO":999,"REV_AT_EPOCH":14063,"BSTAR":0.00016868655,"MEAN_MOTION_DOT":8.5e-7,"MEAN_MOTION_DDOT":0},{"OBJECT_NAME":"ONEWEB-0015","OBJECT_ID":"2024-188A","EPOCH":"2026-02-06T00:03:55.504800","MEAN_MOTION":13.11418129,"ECCENTRICITY":0.00021898,"INCLINATION":87.8815,"RA_OF_ASC_NODE":47.1989,"ARG_OF_PERICENTER":75.8351,"MEAN_ANOMALY":284.302,"EPHEMERIS_TYPE":0,"CLASSIFICATION_TYPE":"U","NORAD_CAT_ID":61594,"ELEMENT_SET_NO":999,"REV_AT_EPOCH":6726,"BSTAR":0.0007595301,"MEAN_MOTION_DOT":2.82e-6,"MEAN_MOTION_DDOT":0},{"OBJECT_NAME":"ONEWEB-0687","OBJECT_ID":"2024-188B","EPOCH":"2026-02-05T22:29:28.400064","MEAN_MOTION":13.17646741,"ECCENTRICITY":0.0002412,"INCLINATION":87.9085,"RA_OF_ASC_NODE":31.9639,"ARG_OF_PERICENTER":85.3965,"MEAN_ANOMALY":274.7442,"EPHEMERIS_TYPE":0,"CLASSIFICATION_TYPE":"U","NORAD_CAT_ID":61595,"ELEMENT_SET_NO":999,"REV_AT_EPOCH":6861,"BSTAR":-7.6662e-5,"MEAN_MOTION_DOT":-1.7e-7,"MEAN_MOTION_DDOT":0},{"OBJECT_NAME":"ONEWEB-0688","OBJECT_ID":"2024-188C","EPOCH":"2026-02-05T23:10:47.786304","MEAN_MOTION":13.17648429,"ECCENTRICITY":0.0002678,"INCLINATION":87.9087,"RA_OF_ASC_NODE":31.958,"ARG_OF_PERICENTER":62.1002,"MEAN_ANOMALY":298.0401,"EPHEMERIS_TYPE":0,"CLASSIFICATION_TYPE":"U","NORAD_CAT_ID":61596,"ELEMENT_SET_NO":999,"REV_AT_EPOCH":6861,"BSTAR":0.00013339,"MEAN_MOTION_DOT":6.5e-7,"MEAN_MOTION_DDOT":0},{"OBJECT_NAME":"ONEWEB-0689","OBJECT_ID":"2024-188D","EPOCH":"2026-02-06T00:52:44.572800","MEAN_MOTION":13.11414801,"ECCENTRICITY":0.00021387,"INCLINATION":87.8825,"RA_OF_ASC_NODE":47.1279,"ARG_OF_PERICENTER":94.0094,"MEAN_ANOMALY":266.1278,"EPHEMERIS_TYPE":0,"CLASSIFICATION_TYPE":"U","NORAD_CAT_ID":61597,"ELEMENT_SET_NO":999,"REV_AT_EPOCH":6726,"BSTAR":-0.00050384623,"MEAN_MOTION_DOT":-1.66e-6,"MEAN_MOTION_DDOT":0},{"OBJECT_NAME":"ONEWEB-0690","OBJECT_ID":"2024-188E","EPOCH":"2026-02-05T23:17:31.371936","MEAN_MOTION":13.11416661,"ECCENTRICITY":0.0001142,"INCLINATION":87.8831,"RA_OF_ASC_NODE":47.1616,"ARG_OF_PERICENTER":84.7499,"MEAN_ANOMALY":275.3759,"EPHEMERIS_TYPE":0,"CLASSIFICATION_TYPE":"U","NORAD_CAT_ID":61598,"ELEMENT_SET_NO":999,"REV_AT_EPOCH":6743,"BSTAR":-0.0013826,"MEAN_MOTION_DOT":-4.77e-6,"MEAN_MOTION_DDOT":0},{"OBJECT_NAME":"ONEWEB-0691","OBJECT_ID":"2024-188F","EPOCH":"2026-02-06T01:00:04.255488","MEAN_MOTION":13.11415889,"ECCENTRICITY":0.00021138,"INCLINATION":87.8834,"RA_OF_ASC_NODE":47.046,"ARG_OF_PERICENTER":80.9009,"MEAN_ANOMALY":279.2358,"EPHEMERIS_TYPE":0,"CLASSIFICATION_TYPE":"U","NORAD_CAT_ID":61599,"ELEMENT_SET_NO":999,"REV_AT_EPOCH":6729,"BSTAR":-0.0010732542,"MEAN_MOTION_DOT":-3.68e-6,"MEAN_MOTION_DDOT":0},{"OBJECT_NAME":"ONEWEB-0692","OBJECT_ID":"2024-188G","EPOCH":"2026-02-05T23:39:29.913696","MEAN_MOTION":13.11418094,"ECCENTRICITY":0.000209,"INCLINATION":87.8815,"RA_OF_ASC_NODE":47.1959,"ARG_OF_PERICENTER":116.714,"MEAN_ANOMALY":243.4202,"EPHEMERIS_TYPE":0,"CLASSIFICATION_TYPE":"U","NORAD_CAT_ID":61600,"ELEMENT_SET_NO":999,"REV_AT_EPOCH":6727,"BSTAR":-0.00078026,"MEAN_MOTION_DOT":-2.64e-6,"MEAN_MOTION_DDOT":0}]
